{
  "links" : {
    "next" : "https://api.nasa.gov/neo/rest/v1/feed?start_date=2000-02-16&end_date=2000-02-16&detailed=true&api_key=t0TVs3DtDT2H8Oy2Zy8m2eVrNsAVKAexjcZXUckd",
    "prev" : "https://api.nasa.gov/neo/rest/v1/feed?start_date=2000-02-14&end_date=2000-02-14&detailed=true&api_key=t0TVs3DtDT2H8Oy2Zy8m2eVrNsAVKAexjcZXUckd",
    "self" : "https://api.nasa.gov/neo/rest/v1/feed?start_date=2000-02-15&end_date=2000-02-15&detailed=true&api_key=t0TVs3DtDT2H8Oy2Zy8m2eVrNsAVKAexjcZXUckd"
  },
  "element_count" : 7,
  "near_earth_objects" : {
    "2000-02-15" : [ {
      "links" : {
        "self" : "https://api.nasa.gov/neo/rest/v1/neo/3458970?api_key=t0TVs3DtDT2H8Oy2Zy8m2eVrNsAVKAexjcZXUckd"
      },
      "neo_reference_id" : "3458970",
      "name" : "(2009 HE60)",
      "nasa_jpl_url" : "http://ssd.jpl.nasa.gov/sbdb.cgi?sstr=3458970",
      "absolute_magnitude_h" : 25.6,
      "estimated_diameter" : {
        "kilometers" : {
          "estimated_diameter_min" : 0.0201629919,
          "estimated_diameter_max" : 0.0450858206
        },
        "meters" : {
          "estimated_diameter_min" : 20.1629919443,
          "estimated_diameter_max" : 45.0858206172
        },
        "miles" : {
          "estimated_diameter_min" : 0.0125286985,
          "estimated_diameter_max" : 0.0280150214
        },
        "feet" : {
          "estimated_diameter_min" : 66.1515504905,
          "estimated_diameter_max" : 147.9193637137
        }
      },
      "is_potentially_hazardous_asteroid" : false,
      "close_approach_data" : [ {
        "close_approach_date" : "2000-02-15",
        "epoch_date_close_approach" : 950601600000,
        "relative_velocity" : {
          "kilometers_per_second" : "5.9654688209",
          "kilometers_per_hour" : "21475.6877550852",
          "miles_per_hour" : "13344.157205375"
        },
        "miss_distance" : {
          "astronomical" : "0.1905102193",
          "lunar" : "74.1084747314",
          "kilometers" : "28499922",
          "miles" : "17709030"
        },
        "orbiting_body" : "Earth"
      } ],
      "orbital_data" : {
        "orbit_id" : "7",
        "orbit_determination_date" : "2017-04-06 09:00:41",
        "orbit_uncertainty" : "7",
        "minimum_orbit_intersection" : ".0154368",
        "jupiter_tisserand_invariant" : "6.069",
        "epoch_osculation" : "2458000.5",
        "eccentricity" : ".264867281520499",
        "semi_major_axis" : ".9958105940994654",
        "inclination" : "1.584784331143382",
        "ascending_node_longitude" : "229.0079793005404",
        "orbital_period" : "362.9639899005541",
        "perihelion_distance" : ".7320529491310269",
        "perihelion_argument" : "219.8771009413585",
        "aphelion_distance" : "1.259568239067904",
        "perihelion_time" : "2458117.691485565529",
        "mean_anomaly" : "243.7655084870831",
        "mean_motion" : ".9918339284804365",
        "equinox" : "J2000"
      }
    }, {
      "links" : {
        "self" : "https://api.nasa.gov/neo/rest/v1/neo/3627115?api_key=t0TVs3DtDT2H8Oy2Zy8m2eVrNsAVKAexjcZXUckd"
      },
      "neo_reference_id" : "3627115",
      "name" : "(2013 DL1)",
      "nasa_jpl_url" : "http://ssd.jpl.nasa.gov/sbdb.cgi?sstr=3627115",
      "absolute_magnitude_h" : 21.1,
      "estimated_diameter" : {
        "kilometers" : {
          "estimated_diameter_min" : 0.160160338,
          "estimated_diameter_max" : 0.358129403
        },
        "meters" : {
          "estimated_diameter_min" : 160.1603379786,
          "estimated_diameter_max" : 358.1294030194
        },
        "miles" : {
          "estimated_diameter_min" : 0.0995189894,
          "estimated_diameter_max" : 0.2225312253
        },
        "feet" : {
          "estimated_diameter_min" : 525.4604432536,
          "estimated_diameter_max" : 1174.9652706022
        }
      },
      "is_potentially_hazardous_asteroid" : false,
      "close_approach_data" : [ {
        "close_approach_date" : "2000-02-15",
        "epoch_date_close_approach" : 950601600000,
        "relative_velocity" : {
          "kilometers_per_second" : "19.2983945099",
          "kilometers_per_hour" : "69474.2202358121",
          "miles_per_hour" : "43168.5786793022"
        },
        "miss_distance" : {
          "astronomical" : "0.4583456205",
          "lunar" : "178.2964477539",
          "kilometers" : "68567528",
          "miles" : "42605888"
        },
        "orbiting_body" : "Earth"
      } ],
      "orbital_data" : {
        "orbit_id" : "9",
        "orbit_determination_date" : "2017-04-06 08:46:41",
        "orbit_uncertainty" : "2",
        "minimum_orbit_intersection" : ".207265",
        "jupiter_tisserand_invariant" : "6.699",
        "epoch_osculation" : "2458000.5",
        "eccentricity" : ".7201246994204302",
        "semi_major_axis" : ".8392265926735198",
        "inclination" : "26.47045904399265",
        "ascending_node_longitude" : "142.0012599783131",
        "orbital_period" : "280.8130472459211",
        "perihelion_distance" : ".2348787948788695",
        "perihelion_argument" : "185.7803473434846",
        "aphelion_distance" : "1.44357439046817",
        "perihelion_time" : "2457910.426392326352",
        "mean_anomaly" : "115.4736187671362",
        "mean_motion" : "1.281991714881863",
        "equinox" : "J2000"
      }
    }, {
      "links" : {
        "self" : "https://api.nasa.gov/neo/rest/v1/neo/3662637?api_key=t0TVs3DtDT2H8Oy2Zy8m2eVrNsAVKAexjcZXUckd"
      },
      "neo_reference_id" : "3662637",
      "name" : "(2014 DG23)",
      "nasa_jpl_url" : "http://ssd.jpl.nasa.gov/sbdb.cgi?sstr=3662637",
      "absolute_magnitude_h" : 25.1,
      "estimated_diameter" : {
        "kilometers" : {
          "estimated_diameter_min" : 0.0253837029,
          "estimated_diameter_max" : 0.0567596853
        },
        "meters" : {
          "estimated_diameter_min" : 25.3837029364,
          "estimated_diameter_max" : 56.7596852866
        },
        "miles" : {
          "estimated_diameter_min" : 0.0157726969,
          "estimated_diameter_max" : 0.0352688224
        },
        "feet" : {
          "estimated_diameter_min" : 83.279867942,
          "estimated_diameter_max" : 186.2194458756
        }
      },
      "is_potentially_hazardous_asteroid" : false,
      "close_approach_data" : [ {
        "close_approach_date" : "2000-02-15",
        "epoch_date_close_approach" : 950601600000,
        "relative_velocity" : {
          "kilometers_per_second" : "8.2939243305",
          "kilometers_per_hour" : "29858.127589677",
          "miles_per_hour" : "18552.679334819"
        },
        "miss_distance" : {
          "astronomical" : "0.0566175759",
          "lunar" : "22.0242366791",
          "kilometers" : "8469869",
          "miles" : "5262932.5"
        },
        "orbiting_body" : "Earth"
      } ],
      "orbital_data" : {
        "orbit_id" : "6",
        "orbit_determination_date" : "2017-04-06 08:42:18",
        "orbit_uncertainty" : "6",
        "minimum_orbit_intersection" : ".0547516",
        "jupiter_tisserand_invariant" : "6.492",
        "epoch_osculation" : "2458000.5",
        "eccentricity" : ".2154549925607379",
        "semi_major_axis" : ".9143563470361681",
        "inclination" : "11.83231086626747",
        "ascending_node_longitude" : "157.1965601480407",
        "orbital_period" : "319.3534797775092",
        "perihelion_distance" : ".717353707087627",
        "perihelion_argument" : "215.2556233336167",
        "aphelion_distance" : "1.111358986984709",
        "perihelion_time" : "2457879.328301496710",
        "mean_anomaly" : "136.5941322811811",
        "mean_motion" : "1.127277524111555",
        "equinox" : "J2000"
      }
    } ]
  }
}